[{"OBJECT_NAME":"STARLINK-5189","OBJECT_ID":"2022-136B","EPOCH":"2026-03-09T22:15:48.711168","MEAN_MOTION":15.08834807,"ECCENTRICITY":0.00011561,"INCLINATION":53.2174,"RA_OF_ASC_NODE":302.8648,"ARG_OF_PERICENTER":112.2306,"MEAN_ANOMALY":247.8809,"EPHEMERIS_TYPE":0,"CLASSIFICATION_TYPE":"U","NORAD_CAT_ID":54052,"ELEMENT_SET_NO":999,"REV_AT_EPOCH":18744,"BSTAR":4.623793e-5,"MEAN_MOTION_DOT":4.48e-6,"MEAN_MOTION_DDOT":0},{"OBJECT_NAME":"THE ARAB SATELLITE 813","OBJECT_ID":"2025-292B","EPOCH":"2026-03-09T21:37:26.354208","MEAN_MOTION":15.05594469,"ECCENTRICITY":0.00142186,"INCLINATION":97.6379,"RA_OF_ASC_NODE":145.6178,"ARG_OF_PERICENTER":341.4344,"MEAN_ANOMALY":18.6363,"EPHEMERIS_TYPE":0,"CLASSIFICATION_TYPE":"U","NORAD_CAT_ID":66994,"ELEMENT_SET_NO":999,"REV_AT_EPOCH":1350,"BSTAR":0.00043840303,"MEAN_MOTION_DOT":6.274e-5,"MEAN_MOTION_DDOT":0}]
